STARLINK-3255
1 50201U 21125AX  26090.83335647  .00190228  00000+0  82395-3 0  9996
2 50201  53.1954  30.0653 0004773 111.7943 157.0495 15.83827705  6037
